GLOBALSTAR M079 [+]     
1 37188U 10054A   23018.51700561 -.00000086  00000+0  10097-3 0  9990
2 37188  52.0055 300.6941 0000685  69.5474 101.5067 12.62268694565230
GLOBALSTAR M074 [+]     
1 37189U 10054B   23019.17636506 -.00000064  00000+0  21946-3 0  9992
2 37189  52.0027 298.1464 0000691  54.6705 114.1919 12.62265728565994
GLOBALSTAR M076 [+]     
1 37190U 10054C   23018.94528292 -.00000077  00000+0  15141-3 0  9994
2 37190  52.0041 298.9398 0000328  82.4106 356.2845 12.62249162565976
GLOBALSTAR M077 [+]     
1 37191U 10054D   23019.42760590 -.00000065  00000+0  21430-3 0  9993
2 37191  52.0056 254.0756 0000902  69.8751 100.5561 12.62268287566781
GLOBALSTAR M075 [+]     
1 37192U 10054E   23019.18119461 -.00000082  00000+0  12194-3 0  9998
2 37192  51.9971 340.9629 0000457  93.5802 279.5199 12.62271061565244
GLOBALSTAR M073 [+]     
1 37193U 10054F   23018.94386797 -.00000055  00000+0  27275-3 0  9996
2 37193  52.0044 254.8373 0000883  70.0820 302.9284 12.62270390566678
GLOBALSTAR M083 [+]     
1 37739U 11033A   23019.43036514 -.00000072  00000+0  17866-3 0  9998
2 37739  51.9828 203.2866 0001333  86.6570 279.0133 12.62267229536113
GLOBALSTAR M088 [+]     
1 37740U 11033B   23018.96511756 -.00000125  00000+0 -11646-3 0  9993
2 37740  51.9729 110.9347 0001109 121.1125  49.5115 12.62268383531527
GLOBALSTAR M091 [+]     
1 37741U 11033C   23019.41894720 -.00000096  00000+0  42901-4 0  9995
2 37741  52.0004  71.5341 0000859 122.6500 250.4905 12.62270233532344
GLOBALSTAR M085 [+]     
1 37742U 11033D   23018.72769424 -.00000098  00000+0  30015-4 0  9996
2 37742  51.9884  25.4562 0000460 111.0131  59.9736 12.62265708532505
GLOBALSTAR M081 [+]     
1 37743U 11033E   23019.46564306 -.00000089  00000+0  84278-4 0  9991
2 37743  51.9977  25.4551 0000589 144.5570  20.1175 12.62280995533128
GLOBALSTAR M089 [+]     
1 37744U 11033F   23019.15493479 -.00000093  00000+0  59873-4 0  9998
2 37744  51.9953 340.7933 0000112  26.2342 347.1387 12.62271163533804
GLOBALSTAR M084 [+]     
1 38040U 11080A   23018.77235681 -.00000072  00000+0  17803-3 0  9999
2 38040  51.9977 208.7810 0000849  85.9145 287.2647 12.62266583511761
GLOBALSTAR M080 [+]     
1 38041U 11080B   23018.82519126 -.00000071  00000+0  18101-3 0  9996
2 38041  52.0028 209.9165 0000793  96.8172 277.0475 12.62269868511615
GLOBALSTAR M082 [+]     
1 38042U 11080C   23018.68012609 -.00000103  00000+0  53760-5 0  9993
2 38042  52.0059 165.7123 0001507  88.1352 285.0957 12.62266618512302
GLOBALSTAR M092 [+]     
1 38043U 11080D   23019.16432497 -.00000058  00000+0  25356-3 0  9996
2 38043  52.0066 254.5726 0000756  49.8574 123.1224 12.62266301511028
GLOBALSTAR M090 [+]     
1 38044U 11080E   23019.34093028 -.00000111  00000+0 -39088-4 0  9999
2 38044  51.9864 158.6426 0001221 103.7476 274.3695 12.62268656512547
GLOBALSTAR M086 [+]     
1 38045U 11080F   23019.16350705 -.00000104  00000+0 -74593-6 0  9992
2 38045  51.9877 159.6645 0001776 140.1686  31.8943 12.62268426512524
GLOBALSTAR M097 [+]     
1 39072U 13005A   23019.15204807 -.00000095  00000+0  46754-4 0  9996
2 39072  52.0052  73.3514 0000882 122.5132 237.5820 12.62261797459754
GLOBALSTAR M093 [+]     
1 39073U 13005B   23019.12572479 -.00000097  00000+0  36744-4 0  9997
2 39073  51.9817  68.1449 0001026 126.6437 233.4524 12.62267385459749
GLOBALSTAR M094 [+]     
1 39074U 13005C   23019.04664396 -.00000098  00000+0  30718-4 0  9995
2 39074  51.9980 341.8899 0000403  84.7048 275.3865 12.62266796461247
GLOBALSTAR M096 [+]     
1 39075U 13005D   23018.74309663 -.00000096  00000+0  45281-4 0  9994
2 39075  52.0088  30.6392 0000604 126.9289 233.1634 12.62269088460454
GLOBALSTAR M078 [+]     
1 39076U 13005E   23018.95387620 -.00000179  00000+0 -42079-3 0  9991
2 39076  51.9871 115.7015 0001215  70.9914 289.1084 12.62275719458963
GLOBALSTAR M095 [+]     
1 39077U 13005F   23018.58459799 -.00000103  00000+0  40554-5 0  9992
2 39077  51.9794 114.4620 0001338  98.6274 261.4744 12.62262530458927
GLOBALSTAR FM15 [+]     
1 52888U 22064A   23019.48508690 -.00000128  00000+0  00000+0 0  9990
2 52888  51.9795 203.0618 0011151 143.2130 216.9440 13.37542991 28642
